API VERSION: 1.2
API SOURCE: NASA/JPL Horizons API

*******************************************************************************
 Revised: April 12, 2021         Saturn Barycenter                            6
 
 Dynamical point:
 ---------------
 The location of the center-of-mass of the Saturn system. The point about which
 Saturn and its satellites revolve. See 699 for Saturn center.
*******************************************************************************


*******************************************************************************
Ephemeris / API_USER Tue May 20 01:00:39 2025 Pasadena, USA      / Horizons
*******************************************************************************
Target body name: Saturn Barycenter (6)           {source: DE441}
Center body name: Sun (10)                        {source: DE441}
Center-site name: BODY CENTER
*******************************************************************************
Start time      : A.D. 2011-Aug-09 12:00:00.0000 TDB
Stop  time      : A.D. 2014-Dec-31 12:00:00.0000 TDB
Step-size       : 1440 minutes
*******************************************************************************
Center geodetic : 0.0, 0.0, 0.0                   {E-lon(deg),Lat(deg),Alt(km)}
Center cylindric: 0.0, 0.0, 0.0                   {E-lon(deg),Dxy(km),Dz(km)}
Center radii    : 695700.0, 695700.0, 695700.0 km {Equator_a, b, pole_c}
Output units    : KM-S
Calendar mode   : Mixed Julian/Gregorian
Output type     : GEOMETRIC cartesian states
Output format   : 3 (position, velocity, LT, range, range-rate)
Reference frame : Ecliptic of J2000.0
*******************************************************************************
JDTDB
   X     Y     Z
   VX    VY    VZ
   LT    RG    RR
*******************************************************************************
$$SOE
2455972.000000000 = A.D. 2012-Feb-14 12:00:00.0000 TDB 
 X =-1.324784285245039E+09 Y =-5.905759233882030E+08 Z = 6.301338925608903E+07
 VX= 3.403518773858472E+00 VY=-8.836686115789981E+00 VZ= 1.821962256110110E-02
 LT= 4.842776322448118E+03 RG= 1.451827817250922E+09 RR= 4.896957807951141E-01
2455973.000000000 = A.D. 2012-Feb-15 12:00:00.0000 TDB 
 X =-1.324490007252990E+09 Y =-5.913393180909089E+08 Z = 6.301495324418327E+07
 VX= 3.408471539019937E+00 VY=-8.834487122649849E+00 VZ= 1.798380714097592E-02
 LT= 4.842917437750295E+03 RG= 1.451870122554223E+09 RR= 4.895936179664338E-01
2455974.000000000 = A.D. 2012-Feb-16 12:00:00.0000 TDB 
 X =-1.324195301405213E+09 Y =-5.921025226878327E+08 Z = 6.301649685823092E+07
 VX= 3.413422841810056E+00 VY=-8.832285519650171E+00 VZ= 1.774800102141150E-02
 LT= 4.843058523583674E+03 RG= 1.451912419023001E+09 RR= 4.894912778408598E-01
2455975.000000000 = A.D. 2012-Feb-17 12:00:00.0000 TDB 
 X =-1.323900167828006E+09 Y =-5.928655369536595E+08 Z = 6.301802009901109E+07
 VX= 3.418372683498967E+00 VY=-8.830081310929303E+00 VZ= 1.751220362401362E-02
 LT= 4.843199579897045E+03 RG= 1.451954706641902E+09 RR= 4.893887595219770E-01
2455976.000000000 = A.D. 2012-Feb-18 12:00:00.0000 TDB 
 X =-1.323604606647525E+09 Y =-5.936283606634400E+08 Z = 6.301952296724918E+07
 VX= 3.423321066184349E+00 VY=-8.827874500773015E+00 VZ= 1.727641427991378E-02
 LT= 4.843340606638841E+03 RG= 1.451996985395469E+09 RR= 4.892860614268809E-01
2455977.000000000 = A.D. 2012-Feb-19 12:00:00.0000 TDB 
 X =-1.323308617989702E+09 Y =-5.943909935925957E+08 Z = 6.302100546360877E+07
 VX= 3.428267992923744E+00 VY=-8.825665093477371E+00 VZ= 1.704063222893293E-02
 LT= 4.843481603756924E+03 RG= 1.452039255268070E+09 RR= 4.891831811109834E-01
2455978.000000000 = A.D. 2012-Feb-20 12:00:00.0000 TDB 
 X =-1.323012201980161E+09 Y =-5.951534355169142E+08 Z = 6.302246758868405E+07
 VX= 3.433213467854437E+00 VY=-8.823453093163183E+00 VZ= 1.680485662385989E-02
 LT= 4.843622571198299E+03 RG= 1.452081516243818E+09 RR= 4.890801150842773E-01
2455979.000000000 = A.D. 2012-Feb-21 12:00:00.0000 TDB 
 X =-1.322715358744117E+09 Y =-5.959156862125229E+08 Z = 6.302390934299251E+07
 VX= 3.438157496284134E+00 VY=-8.821238503538620E+00 VZ= 1.656908654163480E-02
 LT= 4.843763508908799E+03 RG= 1.452123768306474E+09 RR= 4.889768586327138E-01
2455980.000000000 = A.D. 2012-Feb-22 12:00:00.0000 TDB 
 X =-1.322418088406275E+09 Y =-5.966777454558412E+08 Z = 6.302533072696930E+07
 VX= 3.443100084733100E+00 VY=-8.819021327611287E+00 VZ= 1.633332100313334E-02
 LT= 4.843904416832699E+03 RG= 1.452166011439331E+09 RR= 4.888734056626852E-01
2455981.000000000 = A.D. 2012-Feb-23 12:00:00.0000 TDB 
 X =-1.322120391090725E+09 Y =-5.974396130235068E+08 Z = 6.302673174096373E+07
 VX= 3.448041240907249E+00 VY=-8.816801567357704E+00 VZ= 1.609755900275278E-02
 LT= 4.844045294912308E+03 RG= 1.452208245625096E+09 RR= 4.887697485903037E-01
2455982.000000000 = A.D. 2012-Feb-24 12:00:00.0000 TDB 
 X =-1.321822266920844E+09 Y =-5.982012886922706E+08 Z = 6.302811238523832E+07
 VX= 3.452980973581907E+00 VY=-8.814579223366406E+00 VZ= 1.586179954837164E-02
 LT= 4.844186143087525E+03 RG= 1.452250470845749E+09 RR= 4.886658783003166E-01
2455983.000000000 = A.D. 2012-Feb-25 12:00:00.0000 TDB 
 X =-1.321523716019211E+09 Y =-5.989627722388616E+08 Z = 6.302947265997213E+07
 VX= 3.457919292377769E+00 VY=-8.812354294480997E+00 VZ= 1.562604171117732E-02
 LT= 4.844326961295409E+03 RG= 1.452292687082422E+09 RR= 4.885617842020685E-01
2455984.000000000 = A.D. 2012-Feb-26 12:00:00.0000 TDB 
 X =-1.321224738507549E+09 Y =-5.997240634398215E+08 Z = 6.303081256526908E+07
 VX= 3.462856207413657E+00 VY=-8.810126777481372E+00 VZ= 1.539028468372550E-02
 LT= 4.844467749469773E+03 RG= 1.452334894315272E+09 RR= 4.884574544120151E-01
2455985.000000000 = A.D. 2012-Feb-27 12:00:00.0000 TDB 
 X =-1.320925334506705E+09 Y =-6.004851620713158E+08 Z = 6.303213210117054E+07
 VX= 3.467791728834334E+00 VY=-8.807896666847085E+00 VZ= 1.515452784269300E-02
 LT= 4.844608507540860E+03 RG= 1.452377092523386E+09 RR= 4.883528760823435E-01
2455986.000000000 = A.D. 2012-Feb-28 12:00:00.0000 TDB 
 X =-1.320625504136664E+09 Y =-6.012460679089305E+08 Z = 6.303343126767433E+07
 VX= 3.472725866270382E+00 VY=-8.805663954669456E+00 VZ= 1.491877080578385E-02
 LT= 4.844749235435123E+03 RG= 1.452419281684716E+09 RR= 4.882480358511079E-01
2455987.000000000 = A.D. 2012-Feb-29 12:00:00.0000 TDB 
 X =-1.320325247516626E+09 Y =-6.020067807274640E+08 Z = 6.303471006475744E+07
 VX= 3.477658628211883E+00 VY=-8.803428630659726E+00 VZ= 1.468301348865531E-02
 LT= 4.844889933075149E+03 RG= 1.452461461776054E+09 RR= 4.881429204093496E-01
2455988.000000000 = A.D. 2012-Mar-01 12:00:00.0000 TDB 
 X =-1.320024564765127E+09 Y =-6.027673003007334E+08 Z = 6.303596849240375E+07
 VX= 3.482590021409473E+00 VY=-8.801190682459366E+00 VZ= 1.444725613465137E-02
 LT= 4.845030600379790E+03 RG= 1.452503632773073E+09 RR= 4.880375171666385E-01
2455989.000000000 = A.D. 2012-Mar-02 12:00:00.0000 TDB 
 X =-1.319723456000215E+09 Y =-6.035276264014132E+08 Z = 6.303720655063304E+07
 VX= 3.487520050346966E+00 VY=-8.798950096037517E+00 VZ= 1.421149933085131E-02
 LT= 4.845171237264438E+03 RG= 1.452545794650407E+09 RR= 4.879318148873646E-01
2455990.000000000 = A.D. 2012-Mar-03 12:00:00.0000 TDB 
 X =-1.319421921339663E+09 Y =-6.042877588009130E+08 Z = 6.303842423953018E+07
 VX= 3.492448716845352E+00 VY=-8.796706856275193E+00 VZ= 1.397574399681867E-02
 LT= 4.845311843641522E+03 RG= 1.452587947381803E+09 RR= 4.878258042848186E-01
2455991.000000000 = A.D. 2012-Mar-04 12:00:00.0000 TDB 
 X =-1.319119960901209E+09 Y =-6.050476972693143E+08 Z = 6.303962155927274E+07
 VX= 3.497376019859261E+00 VY=-8.794460947661371E+00 VZ= 1.373999134653658E-02
 LT= 4.845452419421128E+03 RG= 1.452630090940307E+09 RR= 4.877194784874346E-01
2455992.000000000 = A.D. 2012-Mar-05 12:00:00.0000 TDB 
 X =-1.318817574802809E+09 Y =-6.058074415753675E+08 Z = 6.304079851015371E+07
 VX= 3.502301955488369E+00 VY=-8.792212355005685E+00 VZ= 1.350424282927598E-02
 LT= 4.845592964511753E+03 RG= 1.452672225298485E+09 RR= 4.876128333180672E-01
2455993.000000000 = A.D. 2012-Mar-06 12:00:00.0000 TDB 
 X =-1.318514763162868E+09 Y =-6.065669914865479E+08 Z = 6.304195509259897E+07
 VX= 3.507226517192478E+00 VY=-8.789961064092081E+00 VZ= 1.326850005659530E-02
 LT= 4.845733478821083E+03 RG= 1.452714350428663E+09 RR= 4.875058673657332E-01
2455994.000000000 = A.D. 2012-Mar-07 12:00:00.0000 TDB 
 X =-1.318211526100459E+09 Y =-6.073263467691650E+08 Z = 6.304309130717775E+07
 VX= 3.512149696173860E+00 VY=-8.787707062217313E+00 VZ= 1.303276472340098E-02
 LT= 4.845873962256784E+03 RG= 1.452756466303160E+09 RR= 4.873985818598366E-01
2455995.000000000 = A.D. 2012-Mar-08 12:00:00.0000 TDB 
 X =-1.317907863735494E+09 Y =-6.080855071885104E+08 Z = 6.304420715460655E+07
 VX= 3.517071481874024E+00 VY=-8.785450338577615E+00 VZ= 1.279703853092951E-02
 LT= 4.846014414727227E+03 RG= 1.452798572894507E+09 RR= 4.872909803796529E-01
2455996.000000000 = A.D. 2012-Mar-09 12:00:00.0000 TDB 
 X =-1.317603776188856E+09 Y =-6.088444725090322E+08 Z = 6.304530263574648E+07
 VX= 3.521991862524170E+00 VY=-8.783190884486100E+00 VZ= 1.256132311860370E-02
 LT= 4.846154836142100E+03 RG= 1.452840670175628E+09 RR= 4.871830684467046E-01
2455997.000000000 = A.D. 2012-Mar-10 12:00:00.0000 TDB 
 X =-1.317299263582474E+09 Y =-6.096032424945227E+08 Z = 6.304637775159591E+07
 VX= 3.526910825689463E+00 VY=-8.780928693422648E+00 VZ= 1.232562001018866E-02
 LT= 4.846295226412913E+03 RG= 1.452882758119993E+09 RR= 4.870748530547261E-01
2455998.000000000 = A.D. 2012-Mar-11 12:00:00.0000 TDB 
 X =-1.316994326039364E+09 Y =-6.103618169083009E+08 Z = 6.304743250327826E+07
 VX= 3.531828358756638E+00 VY=-8.778663760936901E+00 VZ= 1.208993057710250E-02
 LT= 4.846435585453340E+03 RG= 1.452924836701726E+09 RR= 4.869663421910188E-01
